[{"CCSDS_OMM_VERS":"2.0","COMMENT":"GENERATED VIA SPACE-TRACK.ORG API","CREATION_DATE":"2004-08-15T23:36:44","ORIGINATOR":"18 SPCS","OBJECT_NAME":"WESTFORD NEEDLES","OBJECT_ID":"1963-014BR","CENTER_NAME":"EARTH","REF_FRAME":"TEME","TIME_SYSTEM":"UTC","MEAN_ELEMENT_THEORY":"SGP4","EPOCH":"1969-06-27T05:59:03.535008","MEAN_MOTION":"8.82654842","ECCENTRICITY":"0.25349590","INCLINATION":"84.8690","RA_OF_ASC_NODE":"273.8304","ARG_OF_PERICENTER":"306.7632","MEAN_ANOMALY":"32.5786","EPHEMERIS_TYPE":"0","CLASSIFICATION_TYPE":"U","NORAD_CAT_ID":"3251","ELEMENT_SET_NO":"999","REV_AT_EPOCH":"18986","BSTAR":"0.00000000000000","MEAN_MOTION_DOT":"0.00006723","MEAN_MOTION_DDOT":"0.0000000000000","SEMIMAJOR_AXIS":"9890.270","PERIOD":"163.144","APOAPSIS":"6019.278","PERIAPSIS":"1004.992","OBJECT_TYPE":"DEBRIS","RCS_SIZE":null,"COUNTRY_CODE":null,"LAUNCH_DATE":null,"SITE":null,"DECAY_DATE":"1987-10-17","FILE":"33933","GP_ID":"8817600","TLE_LINE0":"0 WESTFORD NEEDLES","TLE_LINE1":"1 03251U 63014 BR 69178.24934647  .00006723 +00000-0 +00000-0 0  9993","TLE_LINE2":"2 03251 084.8690 273.8304 2534959 306.7632 032.5786 08.82654842189869"},{"CCSDS_OMM_VERS":"2.0","COMMENT":"GENERATED VIA SPACE-TRACK.ORG API","CREATION_DATE":"2004-08-15T23:36:44","ORIGINATOR":"18 SPCS","OBJECT_NAME":"TITAN 3C TRANSTAGE DEB","OBJECT_ID":"1965-082SJ","CENTER_NAME":"EARTH","REF_FRAME":"TEME","TIME_SYSTEM":"UTC","MEAN_ELEMENT_THEORY":"SGP4","EPOCH":"1969-06-28T13:19:17.335199","MEAN_MOTION":"15.25275533","ECCENTRICITY":"0.00429800","INCLINATION":"33.0309","RA_OF_ASC_NODE":"349.9868","ARG_OF_PERICENTER":"350.2046","MEAN_ANOMALY":"9.7729","EPHEMERIS_TYPE":"0","CLASSIFICATION_TYPE":"U","NORAD_CAT_ID":"3996","ELEMENT_SET_NO":"999","REV_AT_EPOCH":"19903","BSTAR":"0.00000000000000","MEAN_MOTION_DOT":"0.00086636","MEAN_MOTION_DDOT":"0.0000000000000","SEMIMAJOR_AXIS":"6868.099","PERIOD":"94.409","APOAPSIS":"519.483","PERIAPSIS":"460.445","OBJECT_TYPE":"DEBRIS","RCS_SIZE":null,"COUNTRY_CODE":null,"LAUNCH_DATE":null,"SITE":null,"DECAY_DATE":"1969-12-26","FILE":"33933","GP_ID":"8832131","TLE_LINE0":"0 TITAN 3C TRANSTAGE DEB","TLE_LINE1":"1 03996U 65082 SJ 69179.55506175  .00086636 +00000-0 +00000-0 0  9993","TLE_LINE2":"2 03996 033.0309 349.9868 0042980 350.2046 009.7729 15.25275533199031"},{"CCSDS_OMM_VERS":"2.0","COMMENT":"GENERATED VIA SPACE-TRACK.ORG API","CREATION_DATE":"2004-08-15T23:36:44","ORIGINATOR":"18 SPCS","OBJECT_NAME":"SL-8 DEB","OBJECT_ID":"1969-021P","CENTER_NAME":"EARTH","REF_FRAME":"TEME","TIME_SYSTEM":"UTC","MEAN_ELEMENT_THEORY":"SGP4","EPOCH":"1969-06-29T09:27:43.094591","MEAN_MOTION":"16.25374407","ECCENTRICITY":"0.00105590","INCLINATION":"73.3603","RA_OF_ASC_NODE":"171.0434","ARG_OF_PERICENTER":"353.0366","MEAN_ANOMALY":"7.0741","EPHEMERIS_TYPE":"0","CLASSIFICATION_TYPE":"U","NORAD_CAT_ID":"3806","ELEMENT_SET_NO":"999","REV_AT_EPOCH":"1775","BSTAR":"0.00000000000000","MEAN_MOTION_DOT":"0.14680185","MEAN_MOTION_DDOT":"0.0000000000000","SEMIMAJOR_AXIS":"6583.141","PERIOD":"88.594","APOAPSIS":"211.957","PERIAPSIS":"198.055","OBJECT_TYPE":"DEBRIS","RCS_SIZE":null,"COUNTRY_CODE":null,"LAUNCH_DATE":null,"SITE":null,"DECAY_DATE":"1969-06-29","FILE":"33933","GP_ID":"8828240","TLE_LINE0":"0 SL-8 DEB","TLE_LINE1":"1 03806U 69021  P 69180.39424878  .14680185 +00000-0 +00000-0 0  9997","TLE_LINE2":"2 03806 073.3603 171.0434 0010559 353.0366 007.0741 16.25374407017755"},{"CCSDS_OMM_VERS":"2.0","COMMENT":"GENERATED VIA SPACE-TRACK.ORG API","CREATION_DATE":"2004-08-15T23:36:44","ORIGINATOR":"18 SPCS","OBJECT_NAME":"SL-8 DEB","OBJECT_ID":"1965-020CA","CENTER_NAME":"EARTH","REF_FRAME":"TEME","TIME_SYSTEM":"UTC","MEAN_ELEMENT_THEORY":"SGP4","EPOCH":"1969-06-30T06:31:11.488799","MEAN_MOTION":"15.77977331","ECCENTRICITY":"0.00642600","INCLINATION":"55.9279","RA_OF_ASC_NODE":"275.5510","ARG_OF_PERICENTER":"22.2729","MEAN_ANOMALY":"338.0995","EPHEMERIS_TYPE":"0","CLASSIFICATION_TYPE":"U","NORAD_CAT_ID":"1530","ELEMENT_SET_NO":"999","REV_AT_EPOCH":"21733","BSTAR":"0.00000000000000","MEAN_MOTION_DOT":"0.00938626","MEAN_MOTION_DDOT":"0.0000000000000","SEMIMAJOR_AXIS":"6714.313","PERIOD":"91.256","APOAPSIS":"379.324","PERIAPSIS":"293.032","OBJECT_TYPE":"DEBRIS","RCS_SIZE":null,"COUNTRY_CODE":null,"LAUNCH_DATE":null,"SITE":null,"DECAY_DATE":"1969-07-04","FILE":"33933","GP_ID":"8801998","TLE_LINE0":"0 SL-8 DEB","TLE_LINE1":"1 01530U 65020 CA 69181.27166075  .00938626 +00000-0 +00000-0 0  9995","TLE_LINE2":"2 01530 055.9279 275.5510 0064260 022.2729 338.0995 15.77977331217338"},{"CCSDS_OMM_VERS":"2.0","COMMENT":"GENERATED VIA SPACE-TRACK.ORG API","CREATION_DATE":"2004-08-15T23:36:44","ORIGINATOR":"18 SPCS","OBJECT_NAME":"WESTFORD NEEDLES","OBJECT_ID":"1963-014CE","CENTER_NAME":"EARTH","REF_FRAME":"TEME","TIME_SYSTEM":"UTC","MEAN_ELEMENT_THEORY":"SGP4","EPOCH":"1969-06-30T20:33:23.016095","MEAN_MOTION":"8.77274169","ECCENTRICITY":"0.22511800","INCLINATION":"85.5818","RA_OF_ASC_NODE":"302.3074","ARG_OF_PERICENTER":"342.4762","MEAN_ANOMALY":"10.9275","EPHEMERIS_TYPE":"0","CLASSIFICATION_TYPE":"U","NORAD_CAT_ID":"3264","ELEMENT_SET_NO":"999","REV_AT_EPOCH":"19200","BSTAR":"0.00000000000000","MEAN_MOTION_DOT":"0.00000000","MEAN_MOTION_DDOT":"0.0000000000000","SEMIMAJOR_AXIS":"9930.670","PERIOD":"164.144","APOAPSIS":"5788.107","PERIAPSIS":"1316.962","OBJECT_TYPE":"DEBRIS","RCS_SIZE":null,"COUNTRY_CODE":null,"LAUNCH_DATE":null,"SITE":null,"DECAY_DATE":"1987-10-17","FILE":"33933","GP_ID":"8817660","TLE_LINE0":"0 WESTFORD NEEDLES","TLE_LINE1":"1 03264U 63014 CE 69181.85651639  .00000000 +00000-0 +00000-0 0  9997","TLE_LINE2":"2 03264 085.5818 302.3074 2251180 342.4762 010.9275 08.77274169192005"},{"CCSDS_OMM_VERS":"2.0","COMMENT":"GENERATED VIA SPACE-TRACK.ORG API","CREATION_DATE":"2004-08-15T23:36:44","ORIGINATOR":"18 SPCS","OBJECT_NAME":"SL-8 DEB","OBJECT_ID":"1969-021X","CENTER_NAME":"EARTH","REF_FRAME":"TEME","TIME_SYSTEM":"UTC","MEAN_ELEMENT_THEORY":"SGP4","EPOCH":"1969-07-03T23:25:28.098623","MEAN_MOTION":"15.53677959","ECCENTRICITY":"0.00071400","INCLINATION":"74.0419","RA_OF_ASC_NODE":"176.0686","ARG_OF_PERICENTER":"279.6959","MEAN_ANOMALY":"80.3331","EPHEMERIS_TYPE":"0","CLASSIFICATION_TYPE":"U","NORAD_CAT_ID":"3977","ELEMENT_SET_NO":"999","REV_AT_EPOCH":"1752","BSTAR":"0.00000000000000","MEAN_MOTION_DOT":"0.00187686","MEAN_MOTION_DDOT":"0.0000000000000","SEMIMAJOR_AXIS":"6784.139","PERIOD":"92.683","APOAPSIS":"410.848","PERIAPSIS":"401.160","OBJECT_TYPE":"DEBRIS","RCS_SIZE":null,"COUNTRY_CODE":null,"LAUNCH_DATE":null,"SITE":null,"DECAY_DATE":"1969-08-18","FILE":"33933","GP_ID":"8831833","TLE_LINE0":"0 SL-8 DEB","TLE_LINE1":"1 03977U 69021  X 69184.97601966  .00187686 +00000-0 +00000-0 0  9992","TLE_LINE2":"2 03977 074.0419 176.0686 0007140 279.6959 080.3331 15.53677959017526"},{"CCSDS_OMM_VERS":"2.0","COMMENT":"GENERATED VIA SPACE-TRACK.ORG API","CREATION_DATE":"2004-08-15T23:36:44","ORIGINATOR":"18 SPCS","OBJECT_NAME":"EXPLORER 23 DEB","OBJECT_ID":"1964-074C","CENTER_NAME":"EARTH","REF_FRAME":"TEME","TIME_SYSTEM":"UTC","MEAN_ELEMENT_THEORY":"SGP4","EPOCH":"1969-07-06T18:08:51.147456","MEAN_MOTION":"15.58453859","ECCENTRICITY":"0.03170400","INCLINATION":"51.9415","RA_OF_ASC_NODE":"319.4718","ARG_OF_PERICENTER":"22.7283","MEAN_ANOMALY":"338.7310","EPHEMERIS_TYPE":"0","CLASSIFICATION_TYPE":"U","NORAD_CAT_ID":"4019","ELEMENT_SET_NO":"999","REV_AT_EPOCH":"2600","BSTAR":"0.00000000000000","MEAN_MOTION_DOT":"0.02289973","MEAN_MOTION_DDOT":"0.0000000000000","SEMIMAJOR_AXIS":"6770.272","PERIOD":"92.399","APOAPSIS":"606.782","PERIAPSIS":"177.492","OBJECT_TYPE":"DEBRIS","RCS_SIZE":null,"COUNTRY_CODE":null,"LAUNCH_DATE":null,"SITE":null,"DECAY_DATE":"1969-07-15","FILE":"33933","GP_ID":"8832518","TLE_LINE0":"0 EXPLORER 23 DEB","TLE_LINE1":"1 04019U 64074  C 69187.75614754  .02289973 +00000-0 +00000-0 0  9995","TLE_LINE2":"2 04019 051.9415 319.4718 0317040 022.7283 338.7310 15.58453859026009"},{"CCSDS_OMM_VERS":"2.0","COMMENT":"GENERATED VIA SPACE-TRACK.ORG API","CREATION_DATE":"2004-08-15T23:36:44","ORIGINATOR":"18 SPCS","OBJECT_NAME":"THOR ABLESTAR DEB","OBJECT_ID":"1961-015AG","CENTER_NAME":"EARTH","REF_FRAME":"TEME","TIME_SYSTEM":"UTC","MEAN_ELEMENT_THEORY":"SGP4","EPOCH":"1969-07-07T00:51:42.744095","MEAN_MOTION":"16.49108106","ECCENTRICITY":"0.00747600","INCLINATION":"66.9466","RA_OF_ASC_NODE":"48.3540","ARG_OF_PERICENTER":"301.4810","MEAN_ANOMALY":"57.9117","EPHEMERIS_TYPE":"0","CLASSIFICATION_TYPE":"U","NORAD_CAT_ID":"146","ELEMENT_SET_NO":"999","REV_AT_EPOCH":"42792","BSTAR":"0.00000000000000","MEAN_MOTION_DOT":"0.58216822","MEAN_MOTION_DDOT":"0.0000000000000","SEMIMAJOR_AXIS":"6519.826","PERIOD":"87.319","APOAPSIS":"190.433","PERIAPSIS":"92.949","OBJECT_TYPE":"DEBRIS","RCS_SIZE":null,"COUNTRY_CODE":null,"LAUNCH_DATE":null,"SITE":null,"DECAY_DATE":"1969-07-07","FILE":"33933","GP_ID":"8792940","TLE_LINE0":"0 THOR ABLESTAR DEB","TLE_LINE1":"1 00146U 61015 AG 69188.03591139  .58216822 +00000-0 +00000-0 0  9991","TLE_LINE2":"2 00146 066.9466 048.3540 0074760 301.4810 057.9117 16.49108106427925"}]